{
  "type": "FeatureCollection",
  "features": [
    {
      "type": "Feature",
      "properties": {
        "title": "Anatolia",
        "description": "Count: 6",
        "count": 6,
        "marker-size": "medium",
        "marker-color": "#1f77b4"
      },
      "geometry": {
        "type": "Point",
        "coordinates": [
          35.0,
          39.0
        ]
      }
    },
    {
      "type": "Feature",
      "properties": {
        "title": "Bactria-Margiana",
        "description": "Count: 17",
        "count": 17,
        "marker-size": "large",
        "marker-color": "#1f77b4"
      },
      "geometry": {
        "type": "Point",
        "coordinates": [
          62.0,
          37.6
        ]
      }
    },
    {
      "type": "Feature",
      "properties": {
        "title": "Central Anatolia",
        "description": "Count: 3",
        "count": 3,
        "marker-size": "medium",
        "marker-color": "#1f77b4"
      },
      "geometry": {
        "type": "Point",
        "coordinates": [
          34.0,
          39.0
        ]
      }
    },
    {
      "type": "Feature",
      "properties": {
        "title": "Crete",
        "description": "Count: 41",
        "count": 41,
        "marker-size": "large",
        "marker-color": "#1f77b4"
      },
      "geometry": {
        "type": "Point",
        "coordinates": [
          24.8093,
          35.2401
        ]
      }
    },
    {
      "type": "Feature",
      "properties": {
        "title": "Cyprus",
        "description": "Count: 161",
        "count": 161,
        "marker-size": "large",
        "marker-color": "#1f77b4"
      },
      "geometry": {
        "type": "Point",
        "coordinates": [
          33.429,
          35.126
        ]
      }
    },
    {
      "type": "Feature",
      "properties": {
        "title": "Egypt",
        "description": "Count: 9",
        "count": 9,
        "marker-size": "medium",
        "marker-color": "#1f77b4"
      },
      "geometry": {
        "type": "Point",
        "coordinates": [
          30.8025,
          26.8206
        ]
      }
    },
    {
      "type": "Feature",
      "properties": {
        "title": "France",
        "description": "Count: 1",
        "count": 1,
        "marker-size": "small",
        "marker-color": "#1f77b4"
      },
      "geometry": {
        "type": "Point",
        "coordinates": [
          2.2137,
          46.2276
        ]
      }
    },
    {
      "type": "Feature",
      "properties": {
        "title": "Germany",
        "description": "Count: 2",
        "count": 2,
        "marker-size": "small",
        "marker-color": "#1f77b4"
      },
      "geometry": {
        "type": "Point",
        "coordinates": [
          10.4515,
          51.1657
        ]
      }
    },
    {
      "type": "Feature",
      "properties": {
        "title": "Greece",
        "description": "Count: 263",
        "count": 263,
        "marker-size": "large",
        "marker-color": "#1f77b4"
      },
      "geometry": {
        "type": "Point",
        "coordinates": [
          21.8243,
          39.0742
        ]
      }
    },
    {
      "type": "Feature",
      "properties": {
        "title": "Iran",
        "description": "Count: 12",
        "count": 12,
        "marker-size": "large",
        "marker-color": "#1f77b4"
      },
      "geometry": {
        "type": "Point",
        "coordinates": [
          53.688,
          32.4279
        ]
      }
    },
    {
      "type": "Feature",
      "properties": {
        "title": "Iran (?)",
        "description": "Count: 2",
        "count": 2,
        "marker-size": "small",
        "marker-color": "#1f77b4"
      },
      "geometry": {
        "type": "Point",
        "coordinates": [
          53.688,
          32.4279
        ]
      }
    },
    {
      "type": "Feature",
      "properties": {
        "title": "Iran or Mesopotamia",
        "description": "Count: 2",
        "count": 2,
        "marker-size": "small",
        "marker-color": "#1f77b4"
      },
      "geometry": {
        "type": "Point",
        "coordinates": [
          50.0,
          32.5
        ]
      }
    },
    {
      "type": "Feature",
      "properties": {
        "title": "Iran, Luristan",
        "description": "Count: 1",
        "count": 1,
        "marker-size": "small",
        "marker-color": "#1f77b4"
      },
      "geometry": {
        "type": "Point",
        "coordinates": [
          48.5,
          33.5
        ]
      }
    },
    {
      "type": "Feature",
      "properties": {
        "title": "Italy",
        "description": "Count: 318",
        "count": 318,
        "marker-size": "large",
        "marker-color": "#1f77b4"
      },
      "geometry": {
        "type": "Point",
        "coordinates": [
          12.5674,
          41.8719
        ]
      }
    },
    {
      "type": "Feature",
      "properties": {
        "title": "Jordan",
        "description": "Count: 3",
        "count": 3,
        "marker-size": "medium",
        "marker-color": "#1f77b4"
      },
      "geometry": {
        "type": "Point",
        "coordinates": [
          36.2384,
          30.5852
        ]
      }
    },
    {
      "type": "Feature",
      "properties": {
        "title": "Levant",
        "description": "Count: 6",
        "count": 6,
        "marker-size": "medium",
        "marker-color": "#1f77b4"
      },
      "geometry": {
        "type": "Point",
        "coordinates": [
          35.9,
          33.8
        ]
      }
    },
    {
      "type": "Feature",
      "properties": {
        "title": "Mesopotamia",
        "description": "Count: 97",
        "count": 97,
        "marker-size": "large",
        "marker-color": "#1f77b4"
      },
      "geometry": {
        "type": "Point",
        "coordinates": [
          44.0,
          33.0
        ]
      }
    },
    {
      "type": "Feature",
      "properties": {
        "title": "Mesopotamia or Syria",
        "description": "Count: 2",
        "count": 2,
        "marker-size": "small",
        "marker-color": "#1f77b4"
      },
      "geometry": {
        "type": "Point",
        "coordinates": [
          41.0,
          34.5
        ]
      }
    },
    {
      "type": "Feature",
      "properties": {
        "title": "Mesopotamia or southwestern Iran",
        "description": "Count: 1",
        "count": 1,
        "marker-size": "small",
        "marker-color": "#1f77b4"
      },
      "geometry": {
        "type": "Point",
        "coordinates": [
          48.5,
          31.5
        ]
      }
    },
    {
      "type": "Feature",
      "properties": {
        "title": "Northern Syria or southeastern Anatolia",
        "description": "Count: 1",
        "count": 1,
        "marker-size": "small",
        "marker-color": "#1f77b4"
      },
      "geometry": {
        "type": "Point",
        "coordinates": [
          37.4,
          37.1
        ]
      }
    },
    {
      "type": "Feature",
      "properties": {
        "title": "Sicily",
        "description": "Count: 2",
        "count": 2,
        "marker-size": "small",
        "marker-color": "#1f77b4"
      },
      "geometry": {
        "type": "Point",
        "coordinates": [
          14.015,
          37.599
        ]
      }
    },
    {
      "type": "Feature",
      "properties": {
        "title": "Southwestern Iran",
        "description": "Count: 4",
        "count": 4,
        "marker-size": "medium",
        "marker-color": "#1f77b4"
      },
      "geometry": {
        "type": "Point",
        "coordinates": [
          48.5,
          31.5
        ]
      }
    },
    {
      "type": "Feature",
      "properties": {
        "title": "Syria",
        "description": "Count: 12",
        "count": 12,
        "marker-size": "large",
        "marker-color": "#1f77b4"
      },
      "geometry": {
        "type": "Point",
        "coordinates": [
          38.9968,
          34.8021
        ]
      }
    },
    {
      "type": "Feature",
      "properties": {
        "title": "Tunisia",
        "description": "Count: 2",
        "count": 2,
        "marker-size": "small",
        "marker-color": "#1f77b4"
      },
      "geometry": {
        "type": "Point",
        "coordinates": [
          9.5375,
          33.8869
        ]
      }
    },
    {
      "type": "Feature",
      "properties": {
        "title": "Turkey",
        "description": "Count: 29",
        "count": 29,
        "marker-size": "large",
        "marker-color": "#1f77b4"
      },
      "geometry": {
        "type": "Point",
        "coordinates": [
          35.0,
          39.0
        ]
      }
    },
    {
      "type": "Feature",
      "properties": {
        "title": "Urartu",
        "description": "Count: 3",
        "count": 3,
        "marker-size": "medium",
        "marker-color": "#1f77b4"
      },
      "geometry": {
        "type": "Point",
        "coordinates": [
          43.5,
          39.0
        ]
      }
    }
  ]
}